satname,norad_id,inclination_deg,eccentricity,mean_motion_rev_per_day,perigee_km,apogee_km,l1,l2
STARLINK-1234,45190,53.0339,0.0002596,15.85513481,313.1417822668491,316.6167963242515,1 45190U 20012N   26193.89644016  .00110692  00000+0  44773-3 0  9999,2 45190  53.0339  64.2531 0002596 239.9092 120.1674 15.85513481355578
STARLINK-1269,45197,53.1538,0.0003309,15.3784107,450.2344747194029,454.7549867988191,1 45197U 20012V   26192.94071432  .00028812  00000+0  77083-3 0  9999,2 45197  53.1538 179.9127 0003309  34.7271 325.3948 15.37841070353975
STARLINK-1154,45198,53.0393,0.0004311,15.66594711,365.7477422766833,371.5648274468913,1 45198U 20012W   26194.16145023  .00033171  00000+0  31492-3 0  9992,2 45198  53.0393 121.3056 0004311  86.5164 273.6344 15.66594711354847
STARLINK-1199,45201,53.1547,0.0005424,15.37895978,448.6272991503811,456.0369920795456,1 45201U 20012Z   26194.34203366  .00026214  00000+0  70108-3 0  9999,2 45201  53.1547 157.6003 0005424  40.6814 319.4594 15.37895978354435
STARLINK-1209,45206,53.0351,0.0001231,15.74584777,344.9852880875187,346.64072457907787,1 45206U 20012AE  26193.94054946  .00056863  00000+0  38328-3 0  9998,2 45206  53.0351  81.2149 0001231 206.8808 153.2147 15.74584777354493
STARLINK-1231,45212,53.0397,0.0001792,15.30012877,474.54562108769824,477.00206273343974,1 45212U 20012AL  26193.91244579  .00024695  00000+0  84792-3 0  9999,2 45212  53.0397 156.3312 0001792 102.3031 257.8169 15.30012877354344
STARLINK-1271,45217,53.153,0.0005195,15.38079151,448.2416848100993,455.33797878833957,1 45217U 20012AR  26194.01034519  .00039850  00000+0  10523-2 0  9996,2 45217  53.1530 159.2364 0005195  44.3047 315.8372 15.38079151354382
STARLINK-1191,45222,53.1534,0.0003155,15.42452524,436.7228594806111,441.02439318582674,1 45222U 20012AW  26193.24747377  .00053080  00000+0  12088-2 0  9998,2 45222  53.1534 134.7954 0003155  27.8522 332.2652 15.42452524354662
STARLINK-1212,45223,53.0383,0.0001475,15.73311787,348.4471652710199,350.4318003334465,1 45223U 20012AX  26194.59413283  .00045377  00000+0  32438-3 0  9996,2 45223  53.0383  93.5904 0001475 175.8279 184.2751 15.73311787355336
STARLINK-1215,45225,53.1541,0.0004941,15.3819235,448.08024006094547,454.8292426197395,1 45225U 20012AZ  26194.20153475  .00026041  00000+0  68994-3 0  9993,2 45225  53.1541 132.5676 0004941  50.6455 309.4987 15.38192350354731
STARLINK-1221,45227,53.0642,0.000292,15.46524521,424.91517766705056,428.8893205885406,1 45227U 20012BB  26194.54680914  .00010371  00000+0  21378-3 0  9999,2 45227  53.0642  31.2728 0002920  64.8173 295.3136 15.46524521356151
STARLINK-1222,45228,53.0523,0.0003712,15.57592508,392.11293329529053,397.1410332764817,1 45228U 20012BC  26194.13993441  .00022985  00000+0  31157-3 0  9997,2 45228  53.0523  97.7562 0003712  97.1117 263.0316 15.57592508355120
STARLINK-1226,45229,53.1538,0.0005023,15.47955528,419.29159414905644,426.1237226929052,1 45229U 20012BD  26194.21225708  .00030125  00000+0  57386-3 0  9998,2 45229  53.1538 126.2176 0005023  46.3615 313.7809 15.47955528354766
STARLINK-1227,45230,53.1521,0.0004551,15.48065421,419.2908875720177,425.48072342958403,1 45230U 20012BE  26194.21989602  .00039022  00000+0  73728-3 0  9993,2 45230  53.1521 126.2550 0004551  46.3926 313.7459 15.48065421354885
STARLINK-1246,45235,53.1516,0.0005048,15.38161663,448.0979528413209,454.99320037066263,1 45235U 20012BK  26193.91946455  .00032446  00000+0  85721-3 0  9992,2 45235  53.1516 174.9115 0005048  12.6617 347.4513 15.38161663354188
STARLINK-1270,45237,53.038,0.0001408,15.72174654,351.7353700872154,353.6307690188023,1 45237U 20012BM  26193.95694218  .00052188  00000+0  39051-3 0  9995,2 45237  53.0380  98.6881 0001408 174.6405 185.4628 15.72174654355203
STARLINK-1279,45360,53.03,0.0003951,15.86919142,308.28349733982395,313.56919519604526,1 45360U 20019A   26194.53793063  .00098753  00000+0  37378-3 0  9990,2 45360  53.0300 195.4339 0003951  36.6693 323.4601 15.86919142350458
STARLINK-1301,45361,53.0289,0.000612,15.88547543,302.26340392765087,310.44522129428606,1 45361U 20019B   26194.39233316  .00105710  00000+0  36841-3 0  9991,2 45361  53.0289 198.0879 0006120  37.9667 322.1787 15.88547543350410
STARLINK-1262,45366,53.1542,0.0002018,15.37165306,453.117666555705,455.8753174330732,1 45366U 20019G   26194.49879885  .00021150  00000+0  58175-3 0  9993,2 45366  53.1542 298.8899 0002018 271.0554  89.0218 15.37165306349049
STARLINK-1273,45367,53.0404,0.0002097,15.62325756,379.5234362053561,382.35819344089305,1 45367U 20019H   26194.44884367  .00046756  00000+0  52211-3 0  9994,2 45367  53.0404 268.2557 0002097 341.8978  18.1960 15.62325756349447
STARLINK-1277,45369,53.0393,0.0003297,15.70817241,354.33968219760936,358.7805414731538,1 45369U 20019K   26194.46511063  .00038924  00000+0  30997-3 0  9993,2 45369  53.0393 259.9966 0003297  17.7184 342.3948 15.70817241349563
STARLINK-1281,45370,53.1567,0.0001286,15.37981193,451.2014733050428,452.9582050760828,1 45370U 20019L   26194.49117881  .00023615  00000+0  63128-3 0  9991,2 45370  53.1567 298.3538 0001286 236.5470 123.5411 15.37981193349055
STARLINK-1300,45374,53.158,0.0001723,15.38659643,448.8954001564425,451.24840094357296,1 45374U 20019Q   26194.29498497  .00049449  00000+0  12776-2 0  9993,2 45374  53.1580 299.0427 0001723 268.8159  91.2648 15.38659643349020
STARLINK-1302,45375,53.0429,7.62e-05,15.71060617,355.3514397643303,356.3777016037029,1 45375U 20019R   26194.49832522  .00035632  00000+0  28144-3 0  9993,2 45375  53.0429 255.6269 0000762  82.0002 278.1102 15.71060617349620
STARLINK-1304,45376,53.0399,0.000106,15.66668152,367.7302983375421,369.1605738139897,1 45376U 20019S   26194.40326456  .00029613  00000+0  28108-3 0  9991,2 45376  53.0399 258.4823 0001060 329.2667  30.8286 15.66668152349571
STARLINK-1305,45377,53.0355,0.000713,15.76347871,336.0077902343137,345.58899210211985,1 45377U 20019T   26194.60057573  .00045746  00000+0  28634-3 0  9994,2 45377  53.0355 233.7011 0007130  15.0075 345.1154 15.76347871349946
STARLINK-1319,45379,53.0327,0.0004085,15.84375752,315.34763843026576,320.81845020647506,1 45379U 20019V   26194.60169633  .00071484  00000+0  30774-3 0  9993,2 45379  53.0327 223.5655 0004085  29.7081 330.4173 15.84375752350086
STARLINK-1266,45383,53.0422,0.00045,15.69202998,358.145294950119,364.2106784381431,1 45383U 20019Z   26194.42652321  .00032817  00000+0  28031-3 0  9999,2 45383  53.0422 242.6834 0004500  10.0305 350.0800 15.69202998349797
STARLINK-1267,45384,53.0398,0.0002674,15.73850888,346.10455935933896,349.7016456061465,1 45384U 20019AA  26194.40160255  .00045642  00000+0  31877-3 0  9990,2 45384  53.0398 233.3705 0002674  36.0044 324.1153 15.73850888349922
STARLINK-1272,45386,53.0351,0.000288,15.78966243,331.43549476244334,335.3013218776359,1 45386U 20019AC  26194.32074219  .00059706  00000+0  33138-3 0  9995,2 45386  53.0351 211.3544 0002880  49.6912 310.4359 15.78966243350222
STARLINK-1274,45387,53.015,0.0006073,15.69024697,357.5954429835565,365.7816350832654,1 45387U 20019AD  26194.55683449  .00075106  00000+0  63632-3 0  9996,2 45387  53.0150 211.7352 0006073 332.4825  27.5868 15.69024697350235
STARLINK-1280,45388,53.0309,0.0006683,15.92273244,291.46277244692374,300.38332110544434,1 45388U 20019AE  26194.66668981  .00118614  16415-4  35317-3 0  9996,2 45388  53.0309 213.9198 0006683  30.3188  13.9504 15.92273244  6028
STARLINK-1283,45389,53.0327,0.0004366,15.76323174,337.93505231007657,343.80208797392515,1 45389U 20019AF  26194.35260275  .00047140  00000+0  29548-3 0  9999,2 45389  53.0327 210.4467 0004366   7.4575 352.6508 15.76323174350244
STARLINK-1284,45390,53.0388,0.000411,15.74336524,343.7560084969746,349.2836764214753,1 45390U 20019AG  26194.41046435  .00044122  00000+0  30192-3 0  9992,2 45390  53.0388 234.5189 0004110  63.0972 297.0466 15.74336524349904
STARLINK-1297,45395,53.0389,0.000369,15.77506354,335.03043141105536,339.98657779345194,1 45395U 20019AM  26194.64975293  .00050239  00000+0  29856-3 0  9996,2 45395  53.0389 232.0264 0003690  31.4203 328.7037 15.77506354349140
STARLINK-1307,45397,53.0508,0.000222,15.59091458,388.7826931411528,391.7878726347544,1 45397U 20019AP  26194.48283202  .00022640  00000+0  29028-3 0  9998,2 45397  53.0508 242.8493 0002220   1.3147 358.7870 15.59091458349624
STARLINK-1255,45399,53.0302,0.0001408,15.69084936,360.56709494186816,362.46498123739457,1 45399U 20019AR  26194.43218863  .00032690  00000+0  28071-3 0  9999,2 45399  53.0302 208.3993 0001408 342.5561  17.5406 15.69084936350088
STARLINK-1260,45404,53.1534,0.0001743,15.41243209,441.25024867043794,443.6279014902111,1 45404U 20019AW  26194.46107879  .00027252  00000+0  65301-3 0  9998,2 45404  53.1534 260.4048 0001743 291.2904  68.7915 15.41243209349290
STARLINK-1263,45405,53.1555,0.0002889,15.38267988,449.25785707875184,453.2038658290994,1 45405U 20019AX  26194.49993252  .00022957  00000+0  60832-3 0  9991,2 45405  53.1555 262.2341 0002889 300.5358  59.5361 15.38267988349276
STARLINK-1265,45406,53.1541,0.0002292,15.41703664,439.5179916922316,442.64392120346656,1 45406U 20019AY  26194.50930396  .00026396  00000+0  62329-3 0  9998,2 45406  53.1541 260.0665 0002292 348.5268  11.5685 15.41703664349308
STARLINK-1278,45408,53.036,0.0003017,15.78709409,332.071220006811,336.1213815805095,1 45408U 20019BA  26194.58854570  .00052500  00000+0  29547-3 0  9998,2 45408  53.0360 230.9766 0003017  38.6205 321.5030 15.78709409349693
STARLINK-1296,45412,53.1528,5.44e-05,15.41835309,440.3218475529229,441.06373623428044,1 45412U 20019BE  26194.41502858  .00020975  00000+0  49543-3 0  9993,2 45412  53.1528 260.1568 0000544 245.7055 114.3894 15.41835309349297
STARLINK-1309,45414,53.0563,0.0003408,15.76890302,336.9681936490706,341.54676972778907,1 45414U 20019BG  26194.57648045  .00044661  00000+0  27339-3 0  9998,2 45414  53.0563 225.4230 0003408  41.6440 318.4839 15.76890302349759
